{
  "type": "FeatureCollection",
  "features": [
    {
      "type": "Feature",
      "properties": {
        "norad_id": 58655,
        "name": "BEIDOU-3 M26 (C48)",
        "group": "beidou",
        "lat": -26.195657415503682,
        "lon": 48.64274883509045,
        "alt_km": 21527.475918808723,
        "timestamp": "2025-12-21T07:34:34.783457+00:00",
        "meta_object_name": "BEIDOU-3 M26 (C48)",
        "meta_object_id": "2023-207B",
        "meta_epoch": "2025-12-19T05:11:10.015296",
        "meta_mean_motion": 1.86231346,
        "meta_eccentricity": 0.0004042,
        "meta_inclination": 55.592,
        "meta_ra_of_asc_node": 68.3684,
        "meta_arg_of_pericenter": 258.4158,
        "meta_mean_anomaly": 101.5732,
        "meta_ephemeris_type": 0,
        "meta_classification_type": "U",
        "meta_norad_cat_id": 58655,
        "meta_element_set_no": 999,
        "meta_rev_at_epoch": 1347,
        "meta_bstar": 0,
        "meta_mean_motion_dot": -5.7e-07,
        "meta_mean_motion_ddot": 0,
        "tle_line1": "1 58655U 23207B   25353.21608814 -.00000057  00000+0  00000+0 0  9992",
        "tle_line2": "2 58655  55.5920  68.3684 0004042 258.4158 101.5732  1.86231346 13473"
      },
      "geometry": {
        "type": "Point",
        "coordinates": [
          48.64274883509045,
          -26.195657415503682
        ]
      }
    },
    {
      "type": "Feature",
      "properties": {
        "norad_id": 61186,
        "name": "BEIDOU-3 M25 (C47)",
        "group": "beidou",
        "lat": 54.287676176182316,
        "lon": 29.126658714514985,
        "alt_km": 21534.285362502324,
        "timestamp": "2025-12-21T07:34:34.783467+00:00",
        "meta_object_name": "BEIDOU-3 M25 (C47)",
        "meta_object_id": "2024-168B",
        "meta_epoch": "2025-12-20T22:07:53.377248",
        "meta_mean_motion": 1.86230245,
        "meta_eccentricity": 0.00054545,
        "meta_inclination": 54.6348,
        "meta_ra_of_asc_node": 308.4372,
        "meta_arg_of_pericenter": 299.6064,
        "meta_mean_anomaly": 241.0883,
        "meta_ephemeris_type": 0,
        "meta_classification_type": "U",
        "meta_norad_cat_id": 61186,
        "meta_element_set_no": 999,
        "meta_rev_at_epoch": 846,
        "meta_bstar": 0,
        "meta_mean_motion_dot": -6.6e-07,
        "meta_mean_motion_ddot": 0,
        "tle_line1": "1 61186U 24168B   25354.92214557 -.00000066  00000+0  00000+0 0  9998",
        "tle_line2": "2 61186  54.6348 308.4372 0005454 299.6064 241.0883  1.86230245  8460"
      },
      "geometry": {
        "type": "Point",
        "coordinates": [
          29.126658714514985,
          54.287676176182316
        ]
      }
    },
    {
      "type": "Feature",
      "properties": {
        "norad_id": 61187,
        "name": "BEIDOU-3 M27 (C49)",
        "group": "beidou",
        "lat": -31.2553676722579,
        "lon": 153.89601584736812,
        "alt_km": 21535.61321464591,
        "timestamp": "2025-12-21T07:34:34.783477+00:00",
        "meta_object_name": "BEIDOU-3 M27 (C49)",
        "meta_object_id": "2024-168C",
        "meta_epoch": "2025-12-20T17:20:25.638144",
        "meta_mean_motion": 1.86230401,
        "meta_eccentricity": 0.00025275,
        "meta_inclination": 54.6304,
        "meta_ra_of_asc_node": 308.4277,
        "meta_arg_of_pericenter": 339.9286,
        "meta_mean_anomaly": 201.8737,
        "meta_ephemeris_type": 0,
        "meta_classification_type": "U",
        "meta_norad_cat_id": 61187,
        "meta_element_set_no": 999,
        "meta_rev_at_epoch": 593,
        "meta_bstar": 0,
        "meta_mean_motion_dot": -6.7e-07,
        "meta_mean_motion_ddot": 0,
        "tle_line1": "1 61187U 24168C   25354.72251896 -.00000067  00000+0  00000+0 0  9995",
        "tle_line2": "2 61187  54.6304 308.4277 0002527 339.9286 201.8737  1.86230401  5934"
      },
      "geometry": {
        "type": "Point",
        "coordinates": [
          153.89601584736812,
          -31.2553676722579
        ]
      }
    }
  ]
}